TIANMU-1 20             
1 58661U 23208B   26189.53969564  .00005336  00000+0  16935-3 0  9997
2 58661  97.4456 306.6127 0005818 239.4335 120.6334 15.33094242140691
TIANMU-1 21             
1 58662U 23208C   26189.56067701  .00006553  00000+0  19247-3 0  9994
2 58662  97.4517 309.4080 0006090 230.2948 129.7759 15.35468217140848
TIANMU-1 22             
1 58663U 23208D   26189.57294517  .00005071  00000+0  17004-3 0  9996
2 58663  97.4511 305.9061 0002318 253.0015 107.0972 15.31363694140609
TIANMU-1 15             
1 58700U 24004A   26189.59379691  .00003192  00000+0  12376-3 0  9991
2 58700  97.4673  15.7846 0005720 257.5976 102.4623 15.26866873139041
TIANMU-1 16             
1 58701U 24004B   26189.58370902  .00003070  00000+0  11879-3 0  9999
2 58701  97.4620  14.9948 0004322 277.6272  82.4476 15.26969295139042
TIANMU-1 17             
1 58702U 24004C   26189.56918270  .00003319  00000+0  12820-3 0  9997
2 58702  97.4647  15.4730 0003875 285.4245  74.6566 15.26967610139037
TIANMU-1 18             
1 58703U 24004D   26189.61043833  .00003683  00000+0  14231-3 0  9990
2 58703  97.4667  15.7763 0003391 257.2832 102.8028 15.26886739139041
INSAT-3DS               
1 58990U 24033A   26189.44446005 -.00000141  00000+0  00000+0 0  9991
2 58990   0.0846  95.1826 0001061  23.0511  50.2396  1.00272204 47286
METEOR-M2 4             
1 59051U 24039A   26189.56739389 -.00000011  00000+0  14660-4 0  9997
2 59051  98.7021 148.5978 0008182 105.1749 255.0334 14.22431663122309
GOES 19                 
1 60133U 24119A   26189.55590088 -.00000234  00000+0  00000+0 0  9994
2 60133   0.0125 262.4855 0000493 289.5605 219.3928  1.00271276  7171
MTG-S1                  
1 64723U 25143A   26189.28561777  .00000007  00000+0  00000+0 0  9991
2 64723   0.5883 343.4086 0003325 262.0261 143.1851  1.00272558  3633
METOP-SGA1              
1 65159U 25172A   26188.71730620  .00000019  00000+0  29373-4 0  9991
2 65159  98.6633 248.0109 0007483 354.8269   5.2829 14.19818396 46709
FENGYUN 3H              
1 65815U 25219A   26189.25136241  .00000028  00000+0  33549-4 0  9991
2 65815  98.6771 129.6113 0001293  63.5503 296.5807 14.19924104 40371
