OBJECT_NAME,OBJECT_ID,EPOCH,MEAN_MOTION,ECCENTRICITY,INCLINATION,RA_OF_ASC_NODE,ARG_OF_PERICENTER,MEAN_ANOMALY,EPHEMERIS_TYPE,CLASSIFICATION_TYPE,NORAD_CAT_ID,ELEMENT_SET_NO,REV_AT_EPOCH,BSTAR,MEAN_MOTION_DOT,MEAN_MOTION_DDOT
TIANMU-1 20,2023-208B,2026-07-08T12:57:09.703296,15.33094242,.00058188,97.4456,306.6127,239.4335,120.6334,0,U,58661,999,14069,.16934658E-3,.5336E-4,0
TIANMU-1 21,2023-208C,2026-07-08T13:27:22.493664,15.35468217,.00060909,97.4517,309.4080,230.2948,129.7759,0,U,58662,999,14084,.19246619E-3,.6553E-4,0
TIANMU-1 22,2023-208D,2026-07-08T13:45:02.462688,15.31363694,.0002318,97.4511,305.9061,253.0015,107.0972,0,U,58663,999,14060,.17003743E-3,.5071E-4,0
TIANMU-1 15,2024-004A,2026-07-08T14:15:04.053024,15.26866873,.000572,97.4673,15.7846,257.5976,102.4623,0,U,58700,999,13904,.12375795E-3,.3192E-4,0
TIANMU-1 16,2024-004B,2026-07-08T14:00:32.459328,15.26969295,.00043225,97.4620,14.9948,277.6272,82.4476,0,U,58701,999,13904,.11879455E-3,.307E-4,0
TIANMU-1 17,2024-004C,2026-07-08T13:39:37.385280,15.26967610,.00038756,97.4647,15.4730,285.4245,74.6566,0,U,58702,999,13903,.12819508E-3,.3319E-4,0
TIANMU-1 18,2024-004D,2026-07-08T14:39:01.871712,15.26886739,.00033918,97.4667,15.7763,257.2832,102.8028,0,U,58703,999,13904,.14231397E-3,.3683E-4,0
INSAT-3DS,2024-033A,2026-07-08T10:40:01.348320,1.00272204,.00010619,0.0846,95.1826,23.0511,50.2396,0,U,58990,999,4728,0,-.141E-5,0
METEOR-M2 4,2024-039A,2026-07-08T13:37:02.832096,14.22431663,.00081825,98.7021,148.5978,105.1749,255.0334,0,U,59051,999,12230,.14659524E-4,-.11E-6,0
GOES 19,2024-119A,2026-07-08T13:20:29.836032,1.00271276,.00004937,0.0125,262.4855,289.5605,219.3928,0,U,60133,999,717,0,-.234E-5,0
MTG-S1,2025-143A,2026-07-08T06:51:17.375328,1.00272558,.00033259,0.5883,343.4086,262.0261,143.1851,0,U,64723,999,363,0,.7E-7,0
METOP-SGA1,2025-172A,2026-07-07T17:12:55.255680,14.19818396,.00074838,98.6633,248.0109,354.8269,5.2829,0,U,65159,999,4670,.29373112E-4,.19E-6,0
FENGYUN 3H,2025-219A,2026-07-08T06:01:57.712224,14.19924104,.0001293,98.6771,129.6113,63.5503,296.5807,0,U,65815,999,4037,.33548847E-4,.28E-6,0
